STARLINK-4791           
1 53936U 22119BC  26068.85265598 -.00000406  00000+0 -74235-5 0  9998
2 53936  53.2174 298.1232 0001110  93.2066 266.9053 15.08835935192073
LEMUR-2-LANGER2SPACE    
1 63358U 25061H   26068.93705617  .00006238  00000+0  35148-3 0  9991
2 63358  97.5541  45.3892 0015335 237.4180 122.5571 15.13463796 52602
